[{"OBJECT_NAME":"PCSAT (NO-44)","OBJECT_ID":"2001-043C","EPOCH":"2026-03-28T10:00:39.971520","MEAN_MOTION":14.31921117,"ECCENTRICITY":0.00068967,"INCLINATION":67.0488,"RA_OF_ASC_NODE":93.1758,"ARG_OF_PERICENTER":264.7045,"MEAN_ANOMALY":95.327,"EPHEMERIS_TYPE":0,"CLASSIFICATION_TYPE":"U","NORAD_CAT_ID":26931,"ELEMENT_SET_NO":999,"REV_AT_EPOCH":27888,"BSTAR":9.5030448e-5,"MEAN_MOTION_DOT":1.72e-6,"MEAN_MOTION_DDOT":0},{"OBJECT_NAME":"PROBA-1","OBJECT_ID":"2001-049B","EPOCH":"2026-03-28T22:41:16.520640","MEAN_MOTION":15.07147775,"ECCENTRICITY":0.00563488,"INCLINATION":97.9639,"RA_OF_ASC_NODE":93.685,"ARG_OF_PERICENTER":35.5994,"MEAN_ANOMALY":324.8971,"EPHEMERIS_TYPE":0,"CLASSIFICATION_TYPE":"U","NORAD_CAT_ID":26958,"ELEMENT_SET_NO":999,"REV_AT_EPOCH":33153,"BSTAR":0.00029057571,"MEAN_MOTION_DOT":4.458e-5,"MEAN_MOTION_DDOT":0},{"OBJECT_NAME":"SPOT 5","OBJECT_ID":"2002-021A","EPOCH":"2026-03-28T20:00:08.666496","MEAN_MOTION":14.54679479,"ECCENTRICITY":0.01301284,"INCLINATION":97.995,"RA_OF_ASC_NODE":130.2264,"ARG_OF_PERICENTER":165.8475,"MEAN_ANOMALY":194.6425,"EPHEMERIS_TYPE":0,"CLASSIFICATION_TYPE":"U","NORAD_CAT_ID":27421,"ELEMENT_SET_NO":999,"REV_AT_EPOCH":25116,"BSTAR":0.00010273233,"MEAN_MOTION_DOT":4.43e-6,"MEAN_MOTION_DDOT":0},{"OBJECT_NAME":"FENGYUN 1D","OBJECT_ID":"2002-024B","EPOCH":"2026-03-28T21:41:03.373728","MEAN_MOTION":14.10213058,"ECCENTRICITY":0.00164184,"INCLINATION":98.9617,"RA_OF_ASC_NODE":138.5668,"ARG_OF_PERICENTER":108.1932,"MEAN_ANOMALY":252.1027,"EPHEMERIS_TYPE":0,"CLASSIFICATION_TYPE":"U","NORAD_CAT_ID":27431,"ELEMENT_SET_NO":999,"REV_AT_EPOCH":22816,"BSTAR":4.3764641e-5,"MEAN_MOTION_DOT":3.3e-7,"MEAN_MOTION_DDOT":0},{"OBJECT_NAME":"SAUDISAT 1C (SO-50)","OBJECT_ID":"2002-058C","EPOCH":"2026-03-28T21:44:38.007744","MEAN_MOTION":14.82856695,"ECCENTRICITY":0.00754495,"INCLINATION":64.5539,"RA_OF_ASC_NODE":17.3381,"ARG_OF_PERICENTER":277.0993,"MEAN_ANOMALY":82.1538,"EPHEMERIS_TYPE":0,"CLASSIFICATION_TYPE":"U","NORAD_CAT_ID":27607,"ELEMENT_SET_NO":999,"REV_AT_EPOCH":25255,"BSTAR":0.00020829159,"MEAN_MOTION_DOT":1.621e-5,"MEAN_MOTION_DDOT":0},{"OBJECT_NAME":"CORIOLIS","OBJECT_ID":"2003-001A","EPOCH":"2026-03-28T22:29:14.849952","MEAN_MOTION":14.19920152,"ECCENTRICITY":0.00151587,"INCLINATION":98.7159,"RA_OF_ASC_NODE":96.0395,"ARG_OF_PERICENTER":84.7601,"MEAN_ANOMALY":275.5305,"EPHEMERIS_TYPE":0,"CLASSIFICATION_TYPE":"U","NORAD_CAT_ID":27640,"ELEMENT_SET_NO":999,"REV_AT_EPOCH":20283,"BSTAR":9.2175414e-5,"MEAN_MOTION_DOT":1.52e-6,"MEAN_MOTION_DDOT":0},{"OBJECT_NAME":"CUTE-1 (CO-55)","OBJECT_ID":"2003-031E","EPOCH":"2026-03-28T17:48:57.609216","MEAN_MOTION":14.24281445,"ECCENTRICITY":0.00106253,"INCLINATION":98.6773,"RA_OF_ASC_NODE":97.3052,"ARG_OF_PERICENTER":62.9133,"MEAN_ANOMALY":297.3129,"EPHEMERIS_TYPE":0,"CLASSIFICATION_TYPE":"U","NORAD_CAT_ID":27844,"ELEMENT_SET_NO":999,"REV_AT_EPOCH":18022,"BSTAR":0.00017738568,"MEAN_MOTION_DOT":3.66e-6,"MEAN_MOTION_DDOT":0},{"OBJECT_NAME":"CUBESAT XI-IV (CO-57)","OBJECT_ID":"2003-031J","EPOCH":"2026-03-28T13:12:05.572800","MEAN_MOTION":14.23574119,"ECCENTRICITY":0.0010614,"INCLINATION":98.6807,"RA_OF_ASC_NODE":96.8929,"ARG_OF_PERICENTER":79.7322,"MEAN_ANOMALY":280.5053,"EPHEMERIS_TYPE":0,"CLASSIFICATION_TYPE":"U","NORAD_CAT_ID":27848,"ELEMENT_SET_NO":999,"REV_AT_EPOCH":17990,"BSTAR":0.00015152,"MEAN_MOTION_DOT":3.01e-6,"MEAN_MOTION_DDOT":0},{"OBJECT_NAME":"MOZHAETS 4 (RS22)","OBJECT_ID":"2003-042A","EPOCH":"2026-03-28T23:00:46.025856","MEAN_MOTION":14.73306051,"ECCENTRICITY":0.00116524,"INCLINATION":98.3459,"RA_OF_ASC_NODE":270.0584,"ARG_OF_PERICENTER":157.4502,"MEAN_ANOMALY":357.7872,"EPHEMERIS_TYPE":0,"CLASSIFICATION_TYPE":"U","NORAD_CAT_ID":27939,"ELEMENT_SET_NO":999,"REV_AT_EPOCH":20373,"BSTAR":0.00023438647,"MEAN_MOTION_DOT":1.464e-5,"MEAN_MOTION_DDOT":0},{"OBJECT_NAME":"IRS-P6 (RESOURCESAT-1)","OBJECT_ID":"2003-046A","EPOCH":"2026-03-28T21:36:44.895168","MEAN_MOTION":14.3612743,"ECCENTRICITY":0.00632689,"INCLINATION":98.2014,"RA_OF_ASC_NODE":128.3129,"ARG_OF_PERICENTER":222.3816,"MEAN_ANOMALY":215.6606,"EPHEMERIS_TYPE":0,"CLASSIFICATION_TYPE":"U","NORAD_CAT_ID":28051,"ELEMENT_SET_NO":999,"REV_AT_EPOCH":16900,"BSTAR":1.9870472e-5,"MEAN_MOTION_DOT":1.8e-7,"MEAN_MOTION_DDOT":0},{"OBJECT_NAME":"SAUDISAT 2","OBJECT_ID":"2004-025F","EPOCH":"2026-03-28T22:27:40.291200","MEAN_MOTION":14.56631381,"ECCENTRICITY":0.00246657,"INCLINATION":98.5507,"RA_OF_ASC_NODE":85.8502,"ARG_OF_PERICENTER":180.5167,"MEAN_ANOMALY":179.6009,"EPHEMERIS_TYPE":0,"CLASSIFICATION_TYPE":"U","NORAD_CAT_ID":28371,"ELEMENT_SET_NO":999,"REV_AT_EPOCH":15406,"BSTAR":8.9180342e-5,"MEAN_MOTION_DOT":3.5e-6,"MEAN_MOTION_DDOT":0},{"OBJECT_NAME":"COSMOS 2407","OBJECT_ID":"2004-028A","EPOCH":"2026-03-28T21:39:44.134560","MEAN_MOTION":13.76327243,"ECCENTRICITY":0.00405965,"INCLINATION":82.9595,"RA_OF_ASC_NODE":134.3014,"ARG_OF_PERICENTER":116.1591,"MEAN_ANOMALY":56.2658,"EPHEMERIS_TYPE":0,"CLASSIFICATION_TYPE":"U","NORAD_CAT_ID":28380,"ELEMENT_SET_NO":999,"REV_AT_EPOCH":8883,"BSTAR":6.4470371e-5,"MEAN_MOTION_DOT":7.9e-7,"MEAN_MOTION_DDOT":0},{"OBJECT_NAME":"COSMOS 2414","OBJECT_ID":"2005-002A","EPOCH":"2026-03-28T19:04:08.208480","MEAN_MOTION":13.8791775,"ECCENTRICITY":0.00396645,"INCLINATION":82.9454,"RA_OF_ASC_NODE":104.4623,"ARG_OF_PERICENTER":196.6573,"MEAN_ANOMALY":163.3291,"EPHEMERIS_TYPE":0,"CLASSIFICATION_TYPE":"U","NORAD_CAT_ID":28521,"ELEMENT_SET_NO":999,"REV_AT_EPOCH":7266,"BSTAR":4.1319562e-5,"MEAN_MOTION_DOT":6.5e-7,"MEAN_MOTION_DDOT":0},{"OBJECT_NAME":"INMARSAT 4-F1","OBJECT_ID":"2005-009A","EPOCH":"2026-03-28T18:23:38.865120","MEAN_MOTION":1.00271974,"ECCENTRICITY":0.00030766,"INCLINATION":5.0612,"RA_OF_ASC_NODE":42.7187,"ARG_OF_PERICENTER":343.5643,"MEAN_ANOMALY":253.9005,"EPHEMERIS_TYPE":0,"CLASSIFICATION_TYPE":"U","NORAD_CAT_ID":28628,"ELEMENT_SET_NO":999,"REV_AT_EPOCH":7686,"BSTAR":0,"MEAN_MOTION_DOT":1.7e-7,"MEAN_MOTION_DDOT":0},{"OBJECT_NAME":"HAMSAT (VO-52)","OBJECT_ID":"2005-017B","EPOCH":"2026-03-28T18:34:26.912640","MEAN_MOTION":15.08990986,"ECCENTRICITY":0.00181428,"INCLINATION":97.9983,"RA_OF_ASC_NODE":107.4535,"ARG_OF_PERICENTER":312.7639,"MEAN_ANOMALY":47.2061,"EPHEMERIS_TYPE":0,"CLASSIFICATION_TYPE":"U","NORAD_CAT_ID":28650,"ELEMENT_SET_NO":999,"REV_AT_EPOCH":13463,"BSTAR":0.00036543089,"MEAN_MOTION_DOT":5.728e-5,"MEAN_MOTION_DDOT":0},{"OBJECT_NAME":"NOAA 18","OBJECT_ID":"2005-018A","EPOCH":"2026-03-28T20:43:20.407296","MEAN_MOTION":14.13714606,"ECCENTRICITY":0.0014568,"INCLINATION":98.8131,"RA_OF_ASC_NODE":168.6998,"ARG_OF_PERICENTER":23.7418,"MEAN_ANOMALY":336.4424,"EPHEMERIS_TYPE":0,"CLASSIFICATION_TYPE":"U","NORAD_CAT_ID":28654,"ELEMENT_SET_NO":999,"REV_AT_EPOCH":7496,"BSTAR":4.8505198e-5,"MEAN_MOTION_DOT":4.8e-7,"MEAN_MOTION_DDOT":0},{"OBJECT_NAME":"SJ-7","OBJECT_ID":"2005-024A","EPOCH":"2026-03-28T19:48:52.311744","MEAN_MOTION":15.20310453,"ECCENTRICITY":0.00147658,"INCLINATION":97.7382,"RA_OF_ASC_NODE":115.8085,"ARG_OF_PERICENTER":315.3702,"MEAN_ANOMALY":44.6343,"EPHEMERIS_TYPE":0,"CLASSIFICATION_TYPE":"U","NORAD_CAT_ID":28737,"ELEMENT_SET_NO":999,"REV_AT_EPOCH":13581,"BSTAR":0.00046582202,"MEAN_MOTION_DOT":0.00010085,"MEAN_MOTION_DDOT":0}]
