PCSAT (NO-44)           
1 26931U 01043C   26087.41712930  .00000172  00000+0  95030-4 0  9999
2 26931  67.0488  93.1758 0006896 264.7045  95.3270 14.31921117278885
PROBA-1                 
1 26958U 01049B   26087.94533010  .00004458  00000+0  29058-3 0  9999
2 26958  97.9639  93.6850 0056348  35.5994 324.8971 15.07147775331530
SPOT 5                  
1 27421U 02021A   26087.83343364  .00000443  00000+0  10273-3 0  9994
2 27421  97.9950 130.2264 0130128 165.8475 194.6425 14.54679479251168
FENGYUN 1D              
1 27431U 02024B   26087.90351127  .00000033  00000+0  43765-4 0  9990
2 27431  98.9617 138.5668 0016418 108.1932 252.1027 14.10213058228163
SAUDISAT 1C (SO-50)     
1 27607U 02058C   26087.90599546  .00001621  00000+0  20829-3 0  9990
2 27607  64.5539  17.3381 0075449 277.0993  82.1538 14.82856695252555
CORIOLIS                
1 27640U 03001A   26087.93697743  .00000152  00000+0  92175-4 0  9999
2 27640  98.7159  96.0395 0015158  84.7601 275.5305 14.19920152202834
CUTE-1 (CO-55)          
1 27844U 03031E   26087.74233344  .00000366  00000+0  17739-3 0  9999
2 27844  98.6773  97.3052 0010625  62.9133 297.3129 14.24281445180222
CUBESAT XI-IV (CO-57)   
1 27848U 03031J   26087.55006450  .00000301  00000+0  15152-3 0  9994
2 27848  98.6807  96.8929 0010614  79.7322 280.5053 14.23574119179900
MOZHAETS 4 (RS22)       
1 27939U 03042A   26087.95886604  .00001464  00000+0  23439-3 0  9996
2 27939  98.3459 270.0584 0011652 157.4502 357.7872 14.73306051203739
IRS-P6 (RESOURCESAT-1)  
1 28051U 03046A   26087.90051962  .00000018  00000+0  19870-4 0  9991
2 28051  98.2014 128.3129 0063268 222.3816 215.6606 14.36127430169000
SAUDISAT 2              
1 28371U 04025F   26087.93588300  .00000350  00000+0  89180-4 0  9998
2 28371  98.5507  85.8502 0024665 180.5167 179.6009 14.56631381154062
COSMOS 2407             
1 28380U 04028A   26087.90259415  .00000079  00000+0  64470-4 0  9993
2 28380  82.9595 134.3014 0040596 116.1591  56.2658 13.76327243 88832
COSMOS 2414             
1 28521U 05002A   26087.79453945  .00000065  00000+0  41320-4 0  9998
2 28521  82.9454 104.4623 0039664 196.6573 163.3291 13.87917750 72661
INMARSAT 4-F1           
1 28628U 05009A   26087.76642205  .00000017  00000+0  00000+0 0  9991
2 28628   5.0612  42.7187 0003076 343.5643 253.9005  1.00271974 76867
HAMSAT (VO-52)          
1 28650U 05017B   26087.77392260  .00005728  00000+0  36543-3 0  9998
2 28650  97.9983 107.4535 0018142 312.7639  47.2061 15.08990986134632
NOAA 18                 
1 28654U 05018A   26087.86343064  .00000048  00000+0  48505-4 0  9993
2 28654  98.8131 168.6998 0014568  23.7418 336.4424 14.13714606 74968
SJ-7                    
1 28737U 05024A   26087.82560546  .00010085  00000+0  46582-3 0  9998
2 28737  97.7382 115.8085 0014765 315.3702  44.6343 15.20310453135813
